[{"OBJECT_NAME":"SAUDISAT 5B","OBJECT_ID":"2018-102C","EPOCH":"2026-03-09T22:59:17.457216","MEAN_MOTION":15.27248504,"ECCENTRICITY":0.00120577,"INCLINATION":97.3281,"RA_OF_ASC_NODE":135.3629,"ARG_OF_PERICENTER":124.0958,"MEAN_ANOMALY":236.1427,"EPHEMERIS_TYPE":0,"CLASSIFICATION_TYPE":"U","NORAD_CAT_ID":43833,"ELEMENT_SET_NO":999,"REV_AT_EPOCH":40064,"BSTAR":0.00024926623,"MEAN_MOTION_DOT":6.596e-5,"MEAN_MOTION_DDOT":0},{"OBJECT_NAME":"STARLINK-36050","OBJECT_ID":"2025-270Q","EPOCH":"2026-03-09T22:59:12.405408","MEAN_MOTION":15.27586635,"ECCENTRICITY":6.285e-5,"INCLINATION":43.0009,"RA_OF_ASC_NODE":54.9482,"ARG_OF_PERICENTER":313.1805,"MEAN_ANOMALY":46.8994,"EPHEMERIS_TYPE":0,"CLASSIFICATION_TYPE":"U","NORAD_CAT_ID":66602,"ELEMENT_SET_NO":999,"REV_AT_EPOCH":1764,"BSTAR":0.00088207967,"MEAN_MOTION_DOT":0.00024095,"MEAN_MOTION_DDOT":0}]
